ORBCOMM FM115           
1 41186U 15081H   25188.81792147  .00000408  00000+0  11407-3 0  9995
2 41186  46.9995 301.4361 0001110 208.0161 152.0666 14.62528674510796
ORBCOMM FM108           
1 41187U 15081J   25188.52071093  .00000507  00000+0  14537-3 0  9991
2 41187  47.0063  10.9440 0002041  43.3225 316.7821 14.58175042509769
ORBCOMM FM117           
1 41188U 15081K   25188.55548221  .00000494  00000+0  14266-3 0  9991
2 41188  47.0025   9.5352 0002602  56.6414 303.4720 14.58179606509811
ORBCOMM FM116           
1 41189U 15081L   25188.13252615  .00000589  00000+0  16286-3 0  9994
2 41189  47.0023 101.3759 0002440 262.4378  97.6230 14.58238604508561
